TIANMU-1 08             
1 57400U 23101B   26066.00237819  .00000346  00000+0  14775-4 0  9993
2 57400  97.2717 118.7901 0006380 134.2174 225.9592 15.29204229146020
STARLINK-30409          
1 57820U 23138N   26068.49726037  .00001177  00000+0  53563-4 0  9990
2 57820  42.9995 234.8360 0001012 276.7860  83.2876 15.26737941138650
